EARTHCARE               
1 59908U 24101A   24203.91717450  .00020559  00000+0  30541-3 0  9990
2 59908  96.9842 330.8437 0003018 356.1450   3.9782 15.55204355  8388
